CCSDS_OEM_VERS = 2.0
CREATION_DATE  = 2023-04-11T00:33:57.891
ORIGINATOR     = NASA/JSC/FOD/TOPO

META_START
OBJECT_NAME          = ISS
OBJECT_ID            = 1998-067-A
CENTER_NAME          = Earth
REF_FRAME            = EME2000
TIME_SYSTEM          = UTC
START_TIME           = 2023-04-10T12:00:00.000
USEABLE_START_TIME   = 2023-04-10T12:00:00.000
USEABLE_STOP_TIME    = 2023-04-25T12:00:00.000
STOP_TIME            = 2023-04-25T12:00:00.000
META_STOP

COMMENT Source: This file was produced by the TOPO office within FOD at JSC.
COMMENT Units are in kg and m^2
COMMENT MASS=466878.00
COMMENT DRAG_AREA=1450.15
COMMENT DRAG_COEFF=1.65
COMMENT SOLAR_RAD_AREA=0.00
COMMENT SOLAR_RAD_COEFF=0.00
COMMENT Orbits start at the ascending node epoch
COMMENT ISS first asc. node: EPOCH = 2023-04-10T13:23:31.088 $ ORBIT = 3129 $ LAN(DEG) = -95.73427
COMMENT ISS last asc. node : EPOCH = 2023-04-25T10:51:47.340 $ ORBIT = 3360 $ LAN(DEG) = -146.26111
COMMENT Begin sequence of events
COMMENT TRAJECTORY EVENT SUMMARY:
COMMENT 
COMMENT |       EVENT        |       TIG        | ORB |   DV    |   HA    |   HP    |
COMMENT |                    |       GMT        |     |   M/S   |   KM    |   KM    |
COMMENT |                    |                  |     |  (F/S)  |  (NM)   |  (NM)   |
COMMENT =============================================================================
COMMENT  SPX-27 Undock         105:15:00:00.000             0.0     423.4     410.7
COMMENT                                                    (0.0)   (228.6)   (221.8)
COMMENT 
COMMENT  NG-18 Release         111:11:12:29.000             0.0     421.0     411.9
COMMENT                                                    (0.0)   (227.3)   (222.4)
COMMENT 
COMMENT =============================================================================
COMMENT End sequence of events
2023-04-17T10:44:00.000 -3665.918773555790 -3480.457372322500 -4548.600356182380 2.38215417371509 -6.57503818083789 3.10631217529642
2023-04-17T10:48:00.000 -2968.307103596100 -4913.262912272850 -3646.871255521730 3.39606033629252 -5.29218239082681 4.36243491519538
2023-04-17T10:52:00.000 -2055.486121784670 -5989.817252242340 -2479.983514833820 4.16459334213397 -3.62418585448330 5.30240887447653
2023-04-17T10:56:00.000 -993.492353933130 -6631.633082413120 -1132.605852655610 4.63148016324529 -1.69138250307091 5.85718284569870
2023-04-17T11:00:00.000 140.662091100554 -6791.705459302790 297.266651791139 4.76216843919435 0.36579008150685 5.98554164786308
2023-04-17T11:04:00.000 1264.589324346580 -6458.116599508430 1705.462404415990 4.54672415005735 2.39723073578548 5.67758714949654
2023-04-17T11:08:00.000 2296.577768583380 -5655.006146034340 2989.307797783280 4.00070184591499 4.25446943127513 4.95565976131799
2023-04-17T11:12:00.000 3161.614869153800 -4440.805019025710 4055.225289559360 3.16399999549771 5.80206876426455 3.87268828171072
2023-04-17T11:16:00.000 3796.877588835480 -2903.852739635250 4825.587446553620 2.09759738010582 6.92770928497048 2.50776367377727
2023-04-17T11:20:00.000 4156.242802753840 -1155.879215684520 5244.301829254700 0.87882641079970 7.54988552441185 0.96015464074050
2023-04-17T11:24:00.000 4213.567732396330 676.093606289578 5280.819018032390 -0.40412169009995 7.62340737800626 -0.65781668778115
2023-04-17T11:28:00.000 3964.561349358580 2458.898273703070 4932.320463435170 -1.65842268896971 7.14253780187245 -2.22876060489013
2023-04-17T11:32:00.000 3427.116427316450 4062.783435146540 4223.949408678860 -2.79310193823103 6.14134006637283 -3.63838319061790
2023-04-17T11:36:00.000 2640.105054952000 5370.780304085960 3207.108531008490 -3.72534754727986 4.69174795477167 -4.78348790251120
2023-04-17T11:40:00.000 1660.677618735840 6287.299209377080 1955.855749460870 -4.38665808841043 2.89898508983512 -5.57969289112150
2023-04-17T11:44:00.000 560.151046468724 6745.286139428600 561.565858345052 -4.72824492880230 0.89419057339912 -5.96804956624050
2023-04-17T11:48:00.000 -581.223056659905 6711.324173377450 -873.802660368740 -4.72498646855600 -1.17527839506166 -5.91993787015190
2023-04-17T11:52:00.000 -1680.236263214730 6188.160905760640 -2245.321179534530 -4.37751031922818 -3.15737963027000 -5.43937010164451
2023-04-17T11:56:00.000 -2656.922281091550 5214.419601671310 -3452.921303632310 -3.71199549330424 -4.90712281205516 -4.56254298057945
2023-04-17T12:00:00.000 -3440.454188122320 3861.554748822490 -4408.797600351660 -2.77787245890178 -6.29762534150546 -3.35470383289361
2023-04-17T12:04:00.000 -3974.257779520240 2228.361562017790 -5043.756847198440 -1.64367012707514 -7.22923442437133 -1.90464448771548
2023-04-17T12:08:00.000 -4219.972465100730 433.610758358919 -5312.061869205310 -0.39168723112664 -7.63599924869517 -0.31782671575997
2023-04-17T12:12:00.000 -4160.053239688150 -1392.558788761610 -5194.536488101480 0.88791922732886 -7.48958772997774 1.29116692517008
2023-04-17T12:16:00.000 -3798.923352639420 -3117.898567730520 -4699.813384026430 2.10327433775945 -6.80080598419825 2.80648077629161
2023-04-17T12:20:00.000 -3162.643052311230 -4617.396071207840 -3863.707940621340 3.16695662206622 -5.61884359040730 4.11873809829768
2023-04-17T12:24:00.000 -2297.122892886300 -5782.176266063620 -2746.744490101090 4.00194366651356 -4.02829847521257 5.13263311909324
2023-04-17T12:28:00.000 -1264.940591196500 -6527.399225348830 -1429.927943930710 4.54724723532087 -2.14374583955752 5.77387877245414
2023-04-17T12:32:00.000 -140.902906940499 -6798.555777152530 -8.978761970145 4.76262793226805 -0.10187758089673 5.99495916170178
2023-04-17T12:36:00.000 993.366000370238 -6575.626852192780 1412.612542549240 4.63193315742921 1.94838354769988 5.77912991310420
2023-04-17T12:40:00.000 2055.420486354160 -5874.669956426410 2731.212707419130 4.16451240272880 3.85726954143131 5.14195717773547
2023-04-17T12:44:00.000 2968.058738182540 -4746.646012083500 3850.698947785170 3.39442655999729 5.48550124018633 4.13004834922980
2023-04-17T12:48:00.000 3664.978702567260 -3273.632252391540 4689.518940093420 2.37785067041900 6.71468400376415 2.81740433584057
2023-04-17T12:52:00.000 4095.582728308610 -1562.735119583480 5186.603229337690 1.18862711645389 7.45583538267406 1.29962483605503
2023-04-17T12:56:00.000 4228.572342014320 261.728517696111 5305.718706898890 -0.08722734153297 7.65527968535042 -0.31317475831081
2023-04-17T13:00:00.000 4054.165616862760 2067.161809678880 5038.038441324370 -1.35743836027153 7.29810652874585 -1.90402595423255
2023-04-17T13:04:00.000 3584.839661475110 3722.200173568900 4402.823780978960 -2.52990263236318 6.40947852382421 -3.35722821050588
2023-04-17T13:08:00.000 2854.500403531950 5106.196291471980 3446.125302540380 -3.51919350381557 5.05307824144252 -4.56655724963174
2023-04-17T13:12:00.000 1916.136934456810 6118.040002924210 2237.570691235660 -4.25272829249748 3.32714618311007 -5.44301361705371
2023-04-17T13:16:00.000 838.040941449117 6683.699222618110 865.378215105250 -4.67640549475162 1.35775370303701 -5.92171854189587
2023-04-17T13:20:00.000 -301.179132375382 6761.840772498250 -570.114557600542 -4.75896732067580 -0.71040257641268 -5.96727480149310
2023-04-17T13:24:00.000 -1418.445584621100 6346.979493747520 -1963.938002696520 -4.49466957169283 -2.72528289893284 -5.57672527534925
2023-04-17T13:28:00.000 -2432.410160920290 5469.816381882930 -3214.336222633680 -3.90354781912422 -4.53930378496444 -4.77960173402770
2023-04-17T13:32:00.000 -3269.471355711330 4194.798672912660 -4230.310503662870 -3.02964216177682 -6.02061938803891 -3.63536059734625
2023-04-17T13:36:00.000 -3869.118317483050 2615.141027423840 -4938.238493843380 -1.93724551202218 -7.06275311704692 -2.22834558281211
2023-04-17T13:40:00.000 -4188.203090075890 845.830226078351 -5287.072079006980 -0.70583401747625 -7.59171753122383 -0.66113456775259
2023-04-17T13:44:00.000 -4203.893488175690 -984.766015178455 -5251.823379147130 0.57578546208247 -7.57052050872092 0.95297534802539
2023-04-17T13:48:00.000 -3915.179720436770 -2744.059499295220 -4835.204269478670 1.81558231845687 -7.00112581796850 2.49774530034646
2023-04-17T13:52:00.000 -3342.912726130150 -4304.609493564640 -4067.395032809090 2.92444139474071 -5.92423549560506 3.86181044707538
2023-04-17T13:56:00.000 -2528.376117172920 -5553.165737424360 -3003.960007579080 3.82219380429156 -4.41682035977517 4.94622636479615
2023-04-17T14:00:00.000 -1530.435060055500 -6398.853467861370 -1721.993407707500 4.44341710342858 -2.58734195470197 5.67167052338385
2023-04-17T14:04:00.000 -421.377566800466 -6779.887017128800 -314.642645332954 4.74240713585284 -0.56831814447283 5.98456937655755
2023-04-17T14:08:00.000 718.289110537589 -6668.239868161920 1115.627844631830 4.69686193583675 1.49316156126263 5.86140629845094
2023-04-17T14:12:00.000 1805.731165168450 -6071.845800690300 2464.559389460100 4.30985194309968 3.44645958347971 5.31089257505193
2023-04-17T14:16:00.000 2761.898766666910 -5034.049501960240 3633.814843225170 3.60961922170757 5.14901240925113 4.37331206958414
2023-04-17T14:20:00.000 3517.325038441410 -3630.359631603380 4538.206719656810 2.64722729154387 6.47698910237419 3.11722088935119
2023-04-17T14:24:00.000 4017.154804394570 -1962.858550014590 5111.881009774180 1.49263285510621 7.33408008454291 1.63417394658811
2023-04-17T14:28:00.000 4225.084243379190 -152.732797153008 5313.050576953600 0.22948138373670 7.65830882135168 0.03191028501782
2023-04-17T14:32:00.000 4125.916045524390 1668.493914437420 5126.949050133470 -1.05098867952993 7.42592438714368 -1.57344765671494
2023-04-17T14:36:00.000 3726.658297033480 3368.360446596250 4566.897218005190 -2.25601951656291 6.65297486782235 -3.06529363381253
2023-04-17T14:40:00.000 3056.111828871580 4823.000858848650 3673.448694594240 -3.29787345529669 5.39471039320861 -4.33466636884685
2023-04-17T14:44:00.000 2162.884249596910 5926.191071680710 2511.579151000850 -4.10024117815913 3.74207247122269 -5.28828373077722
